{"type": "FeatureCollection", "features": [ {"type": "Feature", "properties": {"norad_id": 33870, "name": "IRIDIUM 33 DEB", "group": "iridium-33-debris", "lat": -51.43931985740323, "lon": 47.20100767391057, "alt_km": 762.2529943008931, "timestamp": "2025-12-27T21:25:02.900710+00:00", "meta": {"OBJECT_NAME": "IRIDIUM 33 DEB", "OBJECT_ID": "1997-051AP", "EPOCH": "2025-12-27T10:06:56.857824", "MEAN_MOTION": 14.45923919, "ECCENTRICITY": 0.002282, "INCLINATION": 86.3732, "RA_OF_ASC_NODE": 51.9664, "ARG_OF_PERICENTER": 131.7258, "MEAN_ANOMALY": 247.1218, "EPHEMERIS_TYPE": 0, "CLASSIFICATION_TYPE": "U", "NORAD_CAT_ID": 33870, "ELEMENT_SET_NO": 999, "REV_AT_EPOCH": 88349, "BSTAR": 0.00073817, "MEAN_MOTION_DOT": 2.652e-05, "MEAN_MOTION_DDOT": 0}, "tle": {"line1": "1 33870U 97051AP  25361.42149141  .00002652  00000+0  73817-3 0  9999", "line2": "2 33870  86.3732  51.9664 0022820 131.7258 247.1218 14.45923919883498"}}, "geometry": {"type": "Point", "coordinates": [47.20100767391057, -51.43931985740323]}}, {"type": "Feature", "properties": {"norad_id": 33881, "name": "IRIDIUM 33 DEB", "group": "iridium-33-debris", "lat": 45.21190052696181, "lon": 103.80706631078186, "alt_km": 691.8714715850483, "timestamp": "2025-12-27T21:25:02.900721+00:00", "meta": {"OBJECT_NAME": "IRIDIUM 33 DEB", "OBJECT_ID": "1997-051BA", "EPOCH": "2025-12-27T06:38:24.101376", "MEAN_MOTION": 14.56845327, "ECCENTRICITY": 0.0060965, "INCLINATION": 86.3853, "RA_OF_ASC_NODE": 100.4236, "ARG_OF_PERICENTER": 127.5949, "MEAN_ANOMALY": 291.3, "EPHEMERIS_TYPE": 0, "CLASSIFICATION_TYPE": "U", "NORAD_CAT_ID": 33881, "ELEMENT_SET_NO": 999, "REV_AT_EPOCH": 87712, "BSTAR": 0.0023748, "MEAN_MOTION_DOT": 0.00010941, "MEAN_MOTION_DDOT": 0}, "tle": {"line1": "1 33881U 97051BA  25361.27666784  .00010941  00000+0  23748-2 0  9998", "line2": "2 33881  86.3853 100.4236 0060965 127.5949 291.3000 14.56845327877122"}}, "geometry": {"type": "Point", "coordinates": [103.80706631078186, 45.21190052696181]}}, {"type": "Feature", "properties": {"norad_id": 33884, "name": "IRIDIUM 33 DEB", "group": "iridium-33-debris", "lat": 49.26152968041601, "lon": 7.203032486669709, "alt_km": 637.1672747774555, "timestamp": "2025-12-27T21:25:02.900732+00:00", "meta": {"OBJECT_NAME": "IRIDIUM 33 DEB", "OBJECT_ID": "1997-051BD", "EPOCH": "2025-12-27T10:23:21.766848", "MEAN_MOTION": 14.77732617, "ECCENTRICITY": 0.0008722, "INCLINATION": 86.3707, "RA_OF_ASC_NODE": 3.1844, "ARG_OF_PERICENTER": 265.1061, "MEAN_ANOMALY": 221.4184, "EPHEMERIS_TYPE": 0, "CLASSIFICATION_TYPE": "U", "NORAD_CAT_ID": 33884, "ELEMENT_SET_NO": 999, "REV_AT_EPOCH": 89064, "BSTAR": 0.0017477, "MEAN_MOTION_DOT": 0.00012569, "MEAN_MOTION_DDOT": 0}, "tle": {"line1": "1 33884U 97051BD  25361.43289082  .00012569  00000+0  17477-2 0  9991", "line2": "2 33884  86.3707   3.1844 0008722 265.1061 221.4184 14.77732617890643"}}, "geometry": {"type": "Point", "coordinates": [7.203032486669709, 49.26152968041601]}}, {"type": "Feature", "properties": {"norad_id": 33886, "name": "IRIDIUM 33 DEB", "group": "iridium-33-debris", "lat": -53.831131186978375, "lon": -114.18454582565393, "alt_km": 771.7106783226654, "timestamp": "2025-12-27T21:25:02.900743+00:00", "meta": {"OBJECT_NAME": "IRIDIUM 33 DEB", "OBJECT_ID": "1997-051BF", "EPOCH": "2025-12-27T03:52:21.169632", "MEAN_MOTION": 14.36068773, "ECCENTRICITY": 0.00137205, "INCLINATION": 86.3818, "RA_OF_ASC_NODE": 61.1579, "ARG_OF_PERICENTER": 190.8914, "MEAN_ANOMALY": 225.9418, "EPHEMERIS_TYPE": 0, "CLASSIFICATION_TYPE": "U", "NORAD_CAT_ID": 33886, "ELEMENT_SET_NO": 999, "REV_AT_EPOCH": 88259, "BSTAR": 0.00021197521, "MEAN_MOTION_DOT": 6.37e-06, "MEAN_MOTION_DDOT": 0}, "tle": {"line1": "1 33886U 97051BF  25361.16135613  .00000637  00000+0  21198-3 0  9992", "line2": "2 33886  86.3818  61.1579 0013720 190.8914 225.9418 14.36068773882596"}}, "geometry": {"type": "Point", "coordinates": [-114.18454582565393, -53.831131186978375]}}, {"type": "Feature", "properties": {"norad_id": 33887, "name": "IRIDIUM 33 DEB", "group": "iridium-33-debris", "lat": -53.63722345298396, "lon": -178.10213570934022, "alt_km": 772.777770816474, "timestamp": "2025-12-27T21:25:02.900755+00:00", "meta": {"OBJECT_NAME": "IRIDIUM 33 DEB", "OBJECT_ID": "1997-051BG", "EPOCH": "2025-12-27T10:52:42.681792", "MEAN_MOTION": 14.37234451, "ECCENTRICITY": 0.0006059, "INCLINATION": 86.3044, "RA_OF_ASC_NODE": 357.0509, "ARG_OF_PERICENTER": 171.9966, "MEAN_ANOMALY": 311.0616, "EPHEMERIS_TYPE": 0, "CLASSIFICATION_TYPE": "U", "NORAD_CAT_ID": 33887, "ELEMENT_SET_NO": 999, "REV_AT_EPOCH": 88376, "BSTAR": 0.00017502, "MEAN_MOTION_DOT": 5.41e-06, "MEAN_MOTION_DDOT": 0}, "tle": {"line1": "1 33887U 97051BG  25361.45327178  .00000541  00000+0  17502-3 0  9992", "line2": "2 33887  86.3044 357.0509 0006059 171.9966 311.0616 14.37234451883768"}}, "geometry": {"type": "Point", "coordinates": [-178.10213570934022, -53.63722345298396]}}, {"type": "Feature", "properties": {"norad_id": 33953, "name": "IRIDIUM 33 DEB", "group": "iridium-33-debris", "lat": -1.633391580442823, "lon": 47.09782529088691, "alt_km": 704.4911230355074, "timestamp": "2025-12-27T21:25:02.900766+00:00", "meta": {"OBJECT_NAME": "IRIDIUM 33 DEB", "OBJECT_ID": "1997-051BN", "EPOCH": "2025-12-27T03:31:11.629632", "MEAN_MOTION": 14.55459048, "ECCENTRICITY": 0.00173983, "INCLINATION": 86.3835, "RA_OF_ASC_NODE": 47.5249, "ARG_OF_PERICENTER": 58.4623, "MEAN_ANOMALY": 355.3188, "EPHEMERIS_TYPE": 0, "CLASSIFICATION_TYPE": "U", "NORAD_CAT_ID": 33953, "ELEMENT_SET_NO": 999, "REV_AT_EPOCH": 88513, "BSTAR": 0.0012769031, "MEAN_MOTION_DOT": 5.584e-05, "MEAN_MOTION_DDOT": 0}, "tle": {"line1": "1 33953U 97051BN  25361.14666238  .00005584  00000+0  12769-2 0  9996", "line2": "2 33953  86.3835  47.5249 0017398  58.4623 355.3188 14.55459048885138"}}, "geometry": {"type": "Point", "coordinates": [47.09782529088691, -1.633391580442823]}}, {"type": "Feature", "properties": {"norad_id": 33960, "name": "IRIDIUM 33 DEB", "group": "iridium-33-debris", "lat": 6.2530115826529045, "lon": -77.22142606334714, "alt_km": 608.5243529673116, "timestamp": "2025-12-27T21:25:02.900777+00:00", "meta": {"OBJECT_NAME": "IRIDIUM 33 DEB", "OBJECT_ID": "1997-051BV", "EPOCH": "2025-12-27T05:54:29.266848", "MEAN_MOTION": 14.85940294, "ECCENTRICITY": 0.0006959, "INCLINATION": 86.2534, "RA_OF_ASC_NODE": 282.6722, "ARG_OF_PERICENTER": 37.6195, "MEAN_ANOMALY": 114.1546, "EPHEMERIS_TYPE": 0, "CLASSIFICATION_TYPE": "U", "NORAD_CAT_ID": 33960, "ELEMENT_SET_NO": 999, "REV_AT_EPOCH": 89082, "BSTAR": 0.0033865, "MEAN_MOTION_DOT": 0.00029672, "MEAN_MOTION_DDOT": 0}, "tle": {"line1": "1 33960U 97051BV  25361.24617207  .00029672  00000+0  33865-2 0  9991", "line2": "2 33960  86.2534 282.6722 0006959  37.6195 114.1546 14.85940294890825"}}, "geometry": {"type": "Point", "coordinates": [-77.22142606334714, 6.2530115826529045]}}, {"type": "Feature", "properties": {"norad_id": 33966, "name": "IRIDIUM 33 DEB", "group": "iridium-33-debris", "lat": 9.481201410870204, "lon": -141.08069962576934, "alt_km": 722.9605706809316, "timestamp": "2025-12-27T21:25:02.900788+00:00", "meta": {"OBJECT_NAME": "IRIDIUM 33 DEB", "OBJECT_ID": "1997-051CB", "EPOCH": "2025-12-27T02:41:52.155744", "MEAN_MOTION": 14.49650028, "ECCENTRICITY": 0.00089494, "INCLINATION": 86.391, "RA_OF_ASC_NODE": 39.858, "ARG_OF_PERICENTER": 144.2354, "MEAN_ANOMALY": 278.1615, "EPHEMERIS_TYPE": 0, "CLASSIFICATION_TYPE": "U", "NORAD_CAT_ID": 33966, "ELEMENT_SET_NO": 999, "REV_AT_EPOCH": 88650, "BSTAR": 0.00056095778, "MEAN_MOTION_DOT": 2.176e-05, "MEAN_MOTION_DDOT": 0}, "tle": {"line1": "1 33966U 97051CB  25361.11240921  .00002176  00000+0  56096-3 0  9990", "line2": "2 33966  86.3910  39.8580 0008949 144.2354 278.1615 14.49650028886508"}}, "geometry": {"type": "Point", "coordinates": [-141.08069962576934, 9.481201410870204]}}, {"type": "Feature", "properties": {"norad_id": 34071, "name": "IRIDIUM 33 DEB", "group": "iridium-33-debris", "lat": -49.877374408330134, "lon": -164.40941227551141, "alt_km": 740.7963689503867, "timestamp": "2025-12-27T21:25:02.900799+00:00", "meta": {"OBJECT_NAME": "IRIDIUM 33 DEB", "OBJECT_ID": "1997-051CE", "EPOCH": "2025-12-27T12:04:35.885568", "MEAN_MOTION": 14.49531479, "ECCENTRICITY": 0.0009763, "INCLINATION": 86.3454, "RA_OF_ASC_NODE": 11.4103, "ARG_OF_PERICENTER": 68.1287, "MEAN_ANOMALY": 292.0955, "EPHEMERIS_TYPE": 0, "CLASSIFICATION_TYPE": "U", "NORAD_CAT_ID": 34071, "ELEMENT_SET_NO": 999, "REV_AT_EPOCH": 88548, "BSTAR": 0.00069971, "MEAN_MOTION_DOT": 2.703e-05, "MEAN_MOTION_DDOT": 0}, "tle": {"line1": "1 34071U 97051CE  25361.50319312  .00002703  00000+0  69971-3 0  9994", "line2": "2 34071  86.3454  11.4103 0009763  68.1287 292.0955 14.49531479885486"}}, "geometry": {"type": "Point", "coordinates": [-164.40941227551141, -49.877374408330134]}}, {"type": "Feature", "properties": {"norad_id": 34077, "name": "IRIDIUM 33 DEB", "group": "iridium-33-debris", "lat": -12.669511195080476, "lon": -134.35489168903646, "alt_km": 687.0361356745916, "timestamp": "2025-12-27T21:25:02.900810+00:00", "meta": {"OBJECT_NAME": "IRIDIUM 33 DEB", "OBJECT_ID": "1997-051CL", "EPOCH": "2025-12-27T02:47:01.299264", "MEAN_MOTION": 14.65029406, "ECCENTRICITY": 0.00085356, "INCLINATION": 86.3849, "RA_OF_ASC_NODE": 45.1729, "ARG_OF_PERICENTER": 351.6698, "MEAN_ANOMALY": 68.7285, "EPHEMERIS_TYPE": 0, "CLASSIFICATION_TYPE": "U", "NORAD_CAT_ID": 34077, "ELEMENT_SET_NO": 999, "REV_AT_EPOCH": 88543, "BSTAR": 0.0019034333, "MEAN_MOTION_DOT": 0.00010235, "MEAN_MOTION_DDOT": 0}, "tle": {"line1": "1 34077U 97051CL  25361.11598726  .00010235  00000+0  19034-2 0  9998", "line2": "2 34077  86.3849  45.1729 0008535 351.6698  68.7285 14.65029406885439"}}, "geometry": {"type": "Point", "coordinates": [-134.35489168903646, -12.669511195080476]}}]}